NORAD_CAT_ID,OBJECT_NAME,OBJECT_TYPE,EPOCH,MEAN_MOTION,ECCENTRICITY,INCLINATION,RA_OF_ASC_NODE,ARG_OF_PERICENTER,MEAN_ANOMALY,BSTAR,MEAN_MOTION_DOT,MEAN_MOTION_DDOT,TLE_LINE0,TLE_LINE1,TLE_LINE2,SEMIMAJOR_AXIS,PERIOD,APOGEE,PERIGEE,DECAYED
52567.0,STARLINK-3929,PAYLOAD,2023-12-10 21:59:47,15.08830307,0.0001266,53.2167,199.2211,98.2395,261.874,-7.5489e-05,-1.489e-05,0.0,0 STARLINK-3929,1 52567U 22051AL  23344.91652291 -.00001489  00000-0 -75489-4 0  9997,2 52567  53.2167 199.2211 0001266  98.2395 261.8740 15.08830307 87825,6917.91,95.438,540.651,538.899,0.0
52567.0,STARLINK-3929,PAYLOAD,2023-12-11 20:15:10,15.08901582,0.0001658,53.2153,195.0709,74.9237,285.1938,-0.00095905,-0.00015545,0.0,0 STARLINK-3929,1 52567U 22051AL  23345.84386894 -.00015545  00000-0 -95905-3 0  9995,2 52567  53.2153 195.0709 0001658  74.9237 285.1938 15.08901582 88033,6917.692,95.434,540.704,538.41,0.0
52567.0,STARLINK-3929,PAYLOAD,2023-12-11 21:50:32,15.08919186,0.0001266,53.2156,194.773,67.8485,292.2642,-0.0011962,-0.00019316,0.0,0 STARLINK-3929,1 52567U 22051AL  23345.91010182 -.00019316  00000-0 -11962-2 0  9997,2 52567  53.2156 194.7730 0001266  67.8485 292.2642 15.08919186 87979,6917.638,95.433,540.379,538.628,0.0
52567.0,STARLINK-3929,PAYLOAD,2023-12-12 20:05:59,15.08822063,0.0001633,53.2161,190.6062,78.2276,281.89,5.2479e-05,5.47e-06,0.0,0 STARLINK-3929,1 52567U 22051AL  23346.83749794  .00000547  00000-0  52479-4 0  9991,2 52567  53.2161 190.6062 0001633  78.2276 281.8900 15.08822063 88182,6917.935,95.439,540.93,538.671,0.0
52567.0,STARLINK-3929,PAYLOAD,2023-12-13 19:56:47,15.08830892,0.0001651,53.2157,186.145,80.2118,279.9061,7.7808e-05,9.5e-06,0.0,0 STARLINK-3929,1 52567U 22051AL  23347.83109996  .00000950  00000-0  77808-4 0  9997,2 52567  53.2157 186.1450 0001651  80.2118 279.9061 15.08830892 88338,6917.908,95.438,540.915,538.631,0.0
52567.0,STARLINK-3929,PAYLOAD,2023-12-14 19:47:33,15.08838471,0.000164,53.2161,181.6766,73.567,286.5502,0.00012697,1.733e-05,0.0,0 STARLINK-3929,1 52567U 22051AL  23348.82469810  .00001733  00000-0  12697-3 0  9995,2 52567  53.2161 181.6766 0001640  73.5670 286.5502 15.08838471 88413,6917.885,95.438,540.885,538.616,0.0
52567.0,STARLINK-3929,PAYLOAD,2023-12-15 00:33:43,15.08840248,0.0001635,53.216,180.7842,72.6613,287.4558,0.0001354,1.868e-05,0.0,0 STARLINK-3929,1 52567U 22051AL  23349.02341685  .00001868  00000-0  13540-3 0  9994,2 52567  53.2160 180.7842 0001635  72.6613 287.4558 15.08840248 88515,6917.88,95.438,540.876,538.614,0.0
52567.0,STARLINK-3929,PAYLOAD,2023-12-15 19:38:20,15.08850499,0.0001637,53.2162,177.2194,81.0587,279.059,0.00014163,1.967e-05,0.0,0 STARLINK-3929,1 52567U 22051AL  23349.81828954  .00001967  00000-0  14163-3 0  9992,2 52567  53.2162 177.2194 0001637  81.0587 279.0590 15.08850499 88639,6917.848,95.437,540.846,538.581,0.0
52567.0,STARLINK-3929,PAYLOAD,2023-12-16 19:29:07,15.08846379,0.0001631,53.216,172.7587,88.2871,271.8308,4.3818e-05,4.09e-06,0.0,0 STARLINK-3929,1 52567U 22051AL  23350.81189084  .00000409  00000-0  43818-4 0  9998,2 52567  53.2160 172.7587 0001631  88.2871 271.8308 15.08846379 88787,6917.861,95.437,540.854,538.598,0.0
52567.0,STARLINK-3929,PAYLOAD,2023-12-17 19:19:54,15.08845063,0.0001656,53.2156,168.2988,88.5748,271.5434,3.5556e-06,-2.31e-06,0.0,0 STARLINK-3929,1 52567U 22051AL  23351.80548923 -.00000231  00000-0  35556-5 0  9994,2 52567  53.2156 168.2988 0001656  88.5748 271.5434 15.08845063 88865,6917.865,95.437,540.876,538.584,0.0
52567.0,STARLINK-3929,PAYLOAD,2023-12-18 19:10:41,15.0884137,0.0001615,53.2159,163.8389,86.4911,273.6266,3.9884e-05,3.47e-06,0.0,0 STARLINK-3929,1 52567U 22051AL  23352.79908936  .00000347  00000-0  39884-4 0  9991,2 52567  53.2159 163.8389 0001615  86.4911 273.6266 15.08841370 89086,6917.876,95.437,540.858,538.624,0.0
52567.0,STARLINK-3929,PAYLOAD,2023-12-19 19:01:28,15.08841852,0.0001639,53.216,159.3833,80.0111,280.1066,6.1374e-05,6.89e-06,0.0,0 STARLINK-3929,1 52567U 22051AL  23353.79268958  .00000689  00000-0  61374-4 0  9993,2 52567  53.2160 159.3833 0001639  80.0111 280.1066 15.08841852 89165,6917.875,95.437,540.874,538.606,0.0
52567.0,STARLINK-3929,PAYLOAD,2023-12-20 17:16:53,15.08831826,0.0001601,53.2176,155.2181,85.0967,275.0208,-1.3041e-05,-4.96e-06,0.0,0 STARLINK-3929,1 52567U 22051AL  23354.72006146 -.00000496  00000-0 -13041-4 0  9992,2 52567  53.2176 155.2181 0001601  85.0967 275.0208 15.08831826 89370,6917.905,95.438,540.878,538.663,0.0
52567.0,STARLINK-3929,PAYLOAD,2023-12-21 13:56:53,15.08837981,0.0001546,53.2179,151.348,113.2561,246.8594,0.00019494,2.816e-05,0.0,0 STARLINK-3929,1 52567U 22051AL  23355.58116999  .00002816  00000-0  19494-3 0  9998,2 52567  53.2179 151.3480 0001546 113.2561 246.8594 15.08837981 89433,6917.887,95.438,540.821,538.682,0.0
52567.0,STARLINK-3929,PAYLOAD,2023-12-21 15:32:16,15.08836447,0.0001543,53.219,151.0494,101.9088,258.2077,0.00026316,3.902e-05,0.0,0 STARLINK-3929,1 52567U 22051AL  23355.64741003  .00003902  00000-0  26316-3 0  9993,2 52567  53.2190 151.0494 0001543 101.9088 258.2077 15.08836447 89511,6917.891,95.438,540.824,538.689,0.0
52567.0,STARLINK-3929,PAYLOAD,2023-12-22 13:47:40,15.08845509,0.0001655,53.2195,146.9,66.9009,293.2158,0.0001261,1.72e-05,0.0,0 STARLINK-3929,1 52567U 22051AL  23356.57477393  .00001720  00000-0  12610-3 0  9992,2 52567  53.2195 146.9000 0001655  66.9009 293.2158 15.08845509 89584,6917.864,95.437,540.873,538.584,0.0
52567.0,STARLINK-3929,PAYLOAD,2023-12-22 15:23:03,15.08838497,0.0001594,53.2182,146.6014,73.615,286.5017,0.00017033,2.424e-05,0.0,0 STARLINK-3929,1 52567U 22051AL  23356.64101579  .00002424  00000-0  17033-3 0  9996,2 52567  53.2182 146.6014 0001594  73.6150 286.5017 15.08838497 89594,6917.885,95.438,540.853,538.647,0.0
52567.0,STARLINK-3929,PAYLOAD,2023-12-23 13:38:27,15.08844093,0.000149,53.2189,142.4309,88.7024,271.4139,-4.2221e-06,-3.55e-06,0.0,0 STARLINK-3929,1 52567U 22051AL  23357.56837385 -.00000355  00000-0 -42221-5 0  9991,2 52567  53.2189 142.4309 0001490  88.7024 271.4139 15.08844093 89737,6917.868,95.437,540.764,538.702,0.0
52567.0,STARLINK-3929,PAYLOAD,2023-12-23 16:49:13,15.08847941,0.0001538,53.2178,141.8356,89.9965,270.1203,3.1239e-06,-2.38e-06,0.0,0 STARLINK-3929,1 52567U 22051AL  23357.70085031 -.00000238  00000-0  31239-5 0  9996,2 52567  53.2178 141.8356 0001538  89.9965 270.1203 15.08847941 89823,6917.856,95.437,540.785,538.657,0.0
52567.0,STARLINK-3929,PAYLOAD,2023-12-24 13:29:14,15.08838322,0.0001377,53.216,137.9683,76.887,283.2276,5.4198e-05,5.75e-06,0.0,0 STARLINK-3929,1 52567U 22051AL  23358.56197390  .00000575  00000-0  54198-4 0  9994,2 52567  53.2160 137.9683 0001377  76.8870 283.2276 15.08838322 89888,6917.886,95.438,540.703,538.798,0.0
52567.0,STARLINK-3929,PAYLOAD,2023-12-24 16:40:00,15.08842026,0.0001367,53.2166,137.3737,76.9684,283.146,8.8091e-05,1.114e-05,0.0,0 STARLINK-3929,1 52567U 22051AL  23358.69445083  .00001114  00000-0  88091-4 0  9992,2 52567  53.2166 137.3737 0001367  76.9684 283.1460 15.08842026 89971,6917.874,95.437,540.685,538.794,0.0
52567.0,STARLINK-3929,PAYLOAD,2023-12-25 14:55:24,15.08840483,0.0001365,53.217,133.2095,96.227,263.8878,3.1042e-05,2.06e-06,0.0,0 STARLINK-3929,1 52567U 22051AL  23359.62181426  .00000206  00000-0  31042-4 0  9999,2 52567  53.2170 133.2095 0001365  96.2270 263.8878 15.08840483 90045,6917.879,95.438,540.688,538.8,0.0
52567.0,STARLINK-3929,PAYLOAD,2023-12-25 18:06:10,15.08843456,0.0001282,53.2169,132.6152,83.6814,276.4324,6.4744e-05,7.43e-06,0.0,0 STARLINK-3929,1 52567U 22051AL  23359.75429165  .00000743  00000-0  64744-4 0  9999,2 52567  53.2169 132.6152 0001282  83.6814 276.4324 15.08843456 90131,6917.87,95.437,540.622,538.848,0.0
52567.0,STARLINK-3929,PAYLOAD,2023-12-26 08:24:39,15.08836092,0.0001498,53.2167,129.9422,65.1599,294.9549,7.5581e-05,9.15e-06,0.0,0 STARLINK-3929,1 52567U 22051AL  23360.35045792  .00000915  00000-0  75581-4 0  9999,2 52567  53.2167 129.9422 0001498  65.1599 294.9549 15.08836092 90224,6917.892,95.438,540.794,538.721,0.0
52567.0,STARLINK-3929,PAYLOAD,2023-12-26 14:46:12,15.08837335,0.0001398,53.2171,128.7513,68.9518,291.1623,3.1752e-05,2.17e-06,0.0,0 STARLINK-3929,1 52567U 22051AL  23360.61541885  .00000217  00000-0  31752-4 0  9999,2 52567  53.2171 128.7513 0001398  68.9518 291.1623 15.08837335 90197,6917.889,95.438,540.721,538.786,0.0
52567.0,STARLINK-3929,PAYLOAD,2023-12-26 16:21:35,15.08838257,0.0001444,53.2174,128.4544,64.4442,295.67,5.2879e-05,5.54e-06,0.0,0 STARLINK-3929,1 52567U 22051AL  23360.68165805  .00000554  00000-0  52879-4 0  9997,2 52567  53.2174 128.4544 0001444  64.4442 295.6700 15.08838257 90201,6917.886,95.438,540.75,538.752,0.0
52567.0,STARLINK-3929,PAYLOAD,2023-12-27 14:36:58,15.08843744,0.0001377,53.2169,124.2914,72.1326,287.9816,5.9929e-05,6.66e-06,0.0,0 STARLINK-3929,1 52567U 22051AL  23361.60901581  .00000666  00000-0  59929-4 0  9996,2 52567  53.2169 124.2914 0001377  72.1326 287.9816 15.08843744 90346,6917.869,95.437,540.687,538.781,0.0
52567.0,STARLINK-3929,PAYLOAD,2023-12-27 16:12:21,15.08847743,0.0001404,53.2174,123.9945,69.8242,290.2901,7.5941e-05,9.21e-06,0.0,0 STARLINK-3929,1 52567U 22051AL  23361.67525327  .00000921  00000-0  75941-4 0  9999,2 52567  53.2174 123.9945 0001404  69.8242 290.2901 15.08847743 90427,6917.857,95.437,540.693,538.75,0.0
52567.0,STARLINK-3929,PAYLOAD,2023-12-27 20:58:30,15.08855295,0.0001276,53.217,123.1001,77.4801,282.6334,0.00014472,2.017e-05,0.0,0 STARLINK-3929,1 52567U 22051AL  23361.87396396  .00002017  00000-0  14472-3 0  9992,2 52567  53.2170 123.1001 0001276  77.4801 282.6334 15.08855295 90382,6917.834,95.437,540.581,538.816,0.0
52567.0,STARLINK-3929,PAYLOAD,2023-12-28 14:27:46,15.0884603,0.0001493,53.2181,119.8306,93.8917,266.2245,1.2338e-05,-9.2e-07,0.0,0 STARLINK-3929,1 52567U 22051AL  23362.60261867 -.00000092  00000-0  12338-4 0  9990,2 52567  53.2181 119.8306 0001493  93.8917 266.2245 15.08846030 90493,6917.862,95.437,540.76,538.694,0.0
